{"type": "FeatureCollection", "features": [ {"type": "Feature", "properties": {"norad_id": 31243, "name": "FENGYUN 1C DEB", "group": "fengyun-1c-debris", "lat": -81.24301071497159, "lon": 121.61799933410197, "alt_km": 893.9060989589016, "timestamp": "2025-12-16T10:53:45.751119+00:00", "meta": {"OBJECT_NAME": "FENGYUN 1C DEB", "OBJECT_ID": "1999-025BLZ", "EPOCH": "2025-12-15T13:08:38.901408", "MEAN_MOTION": 14.07176763, "ECCENTRICITY": 0.00662412, "INCLINATION": 98.7502, "RA_OF_ASC_NODE": 29.7205, "ARG_OF_PERICENTER": 160.6206, "MEAN_ANOMALY": 199.7504, "EPHEMERIS_TYPE": 0, "CLASSIFICATION_TYPE": "U", "NORAD_CAT_ID": 31243, "ELEMENT_SET_NO": 999, "REV_AT_EPOCH": 69347, "BSTAR": 0.0008746286, "MEAN_MOTION_DOT": 1.452e-05, "MEAN_MOTION_DDOT": 0}, "tle": {"line1": "1 31243U 99025BLZ 25349.54767247  .00001452  00000+0  87463-3 0  9995", "line2": "2 31243  98.7502  29.7205 0066241 160.6206 199.7504 14.07176763693477"}}, "geometry": {"type": "Point", "coordinates": [121.61799933410197, -81.24301071497159]}}, {"type": "Feature", "properties": {"norad_id": 31244, "name": "FENGYUN 1C DEB", "group": "fengyun-1c-debris", "lat": -75.5446467998377, "lon": 92.19005340769633, "alt_km": 912.3220372347178, "timestamp": "2025-12-16T10:53:45.751129+00:00", "meta": {"OBJECT_NAME": "FENGYUN 1C DEB", "OBJECT_ID": "1999-025BMA", "EPOCH": "2025-12-07T22:21:36.542016", "MEAN_MOTION": 14.06237413, "ECCENTRICITY": 0.01023168, "INCLINATION": 99.037, "RA_OF_ASC_NODE": 45.5611, "ARG_OF_PERICENTER": 188.335, "MEAN_ANOMALY": 171.6122, "EPHEMERIS_TYPE": 0, "CLASSIFICATION_TYPE": "U", "NORAD_CAT_ID": 31244, "ELEMENT_SET_NO": 999, "REV_AT_EPOCH": 57572, "BSTAR": 0.00047777338, "MEAN_MOTION_DOT": 7.8e-06, "MEAN_MOTION_DDOT": 0}, "tle": {"line1": "1 31244U 99025BMA 25341.93167294  .00000780  00000+0  47777-3 0  9994", "line2": "2 31244  99.0370  45.5611 0102316 188.3350 171.6122 14.06237413575724"}}, "geometry": {"type": "Point", "coordinates": [92.19005340769633, -75.5446467998377]}}, {"type": "Feature", "properties": {"norad_id": 31246, "name": "FENGYUN 1C DEB", "group": "fengyun-1c-debris", "lat": -20.954034240576934, "lon": 13.944853098400515, "alt_km": 945.472077036743, "timestamp": "2025-12-16T10:53:45.751139+00:00", "meta": {"OBJECT_NAME": "FENGYUN 1C DEB", "OBJECT_ID": "1999-025BMC", "EPOCH": "2025-12-12T08:40:07.558176", "MEAN_MOTION": 14.07203108, "ECCENTRICITY": 0.01486979, "INCLINATION": 98.8179, "RA_OF_ASC_NODE": 193.3588, "ARG_OF_PERICENTER": 344.8205, "MEAN_ANOMALY": 14.8526, "EPHEMERIS_TYPE": 0, "CLASSIFICATION_TYPE": "U", "NORAD_CAT_ID": 31246, "ELEMENT_SET_NO": 999, "REV_AT_EPOCH": 61747, "BSTAR": 0.003171684, "MEAN_MOTION_DOT": 5.838e-05, "MEAN_MOTION_DDOT": 0}, "tle": {"line1": "1 31246U 99025BMC 25346.36119859  .00005838  00000+0  31717-2 0  9997", "line2": "2 31246  98.8179 193.3588 0148697 344.8205  14.8526 14.07203108617475"}}, "geometry": {"type": "Point", "coordinates": [13.944853098400515, -20.954034240576934]}}, {"type": "Feature", "properties": {"norad_id": 31247, "name": "FENGYUN 1C DEB", "group": "fengyun-1c-debris", "lat": -17.25764549079851, "lon": 55.8150435816536, "alt_km": 915.8549226216192, "timestamp": "2025-12-16T10:53:45.751152+00:00", "meta": {"OBJECT_NAME": "FENGYUN 1C DEB", "OBJECT_ID": "1999-025BMD", "EPOCH": "2025-12-15T15:18:24.624000", "MEAN_MOTION": 14.05128845, "ECCENTRICITY": 0.00590017, "INCLINATION": 99.3663, "RA_OF_ASC_NODE": 237.9117, "ARG_OF_PERICENTER": 54.7081, "MEAN_ANOMALY": 335.7276, "EPHEMERIS_TYPE": 0, "CLASSIFICATION_TYPE": "U", "NORAD_CAT_ID": 31247, "ELEMENT_SET_NO": 999, "REV_AT_EPOCH": 95562, "BSTAR": 0.0010249824, "MEAN_MOTION_DOT": 1.633e-05, "MEAN_MOTION_DDOT": 0}, "tle": {"line1": "1 31247U 99025BMD 25349.63778500  .00001633  00000+0  10250-2 0  9993", "line2": "2 31247  99.3663 237.9117 0059001  54.7081 335.7276 14.05128845955623"}}, "geometry": {"type": "Point", "coordinates": [55.8150435816536, -17.25764549079851]}}, {"type": "Feature", "properties": {"norad_id": 31248, "name": "FENGYUN 1C DEB", "group": "fengyun-1c-debris", "lat": -63.08887528889361, "lon": -150.84287843748183, "alt_km": 881.4029410719213, "timestamp": "2025-12-16T10:53:45.751162+00:00", "meta": {"OBJECT_NAME": "FENGYUN 1C DEB", "OBJECT_ID": "1999-025BME", "EPOCH": "2025-12-15T22:29:53.406816", "MEAN_MOTION": 13.92788227, "ECCENTRICITY": 0.01097312, "INCLINATION": 99.2642, "RA_OF_ASC_NODE": 47.3978, "ARG_OF_PERICENTER": 302.6417, "MEAN_ANOMALY": 234.2293, "EPHEMERIS_TYPE": 0, "CLASSIFICATION_TYPE": "U", "NORAD_CAT_ID": 31248, "ELEMENT_SET_NO": 999, "REV_AT_EPOCH": 94868, "BSTAR": 0.00053295674, "MEAN_MOTION_DOT": 6.79e-06, "MEAN_MOTION_DDOT": 0}, "tle": {"line1": "1 31248U 99025BME 25349.93742369  .00000679  00000+0  53296-3 0  9998", "line2": "2 31248  99.2642  47.3978 0109731 302.6417 234.2293 13.92788227948683"}}, "geometry": {"type": "Point", "coordinates": [-150.84287843748183, -63.08887528889361]}}, {"type": "Feature", "properties": {"norad_id": 31250, "name": "FENGYUN 1C DEB", "group": "fengyun-1c-debris", "lat": -31.647598363242764, "lon": 14.981508994322898, "alt_km": 863.9683966669372, "timestamp": "2025-12-16T10:53:45.751174+00:00", "meta": {"OBJECT_NAME": "FENGYUN 1C DEB", "OBJECT_ID": "1999-025BMG", "EPOCH": "2025-12-15T01:21:27.387072", "MEAN_MOTION": 14.03094414, "ECCENTRICITY": 0.01331375, "INCLINATION": 98.3882, "RA_OF_ASC_NODE": 198.9106, "ARG_OF_PERICENTER": 291.5623, "MEAN_ANOMALY": 67.14, "EPHEMERIS_TYPE": 0, "CLASSIFICATION_TYPE": "U", "NORAD_CAT_ID": 31250, "ELEMENT_SET_NO": 999, "REV_AT_EPOCH": 95550, "BSTAR": 0.001018459, "MEAN_MOTION_DOT": 1.672e-05, "MEAN_MOTION_DDOT": 0}, "tle": {"line1": "1 31250U 99025BMG 25349.05656698  .00001672  00000+0  10185-2 0  9996", "line2": "2 31250  98.3882 198.9106 0133137 291.5623  67.1400 14.03094414955503"}}, "geometry": {"type": "Point", "coordinates": [14.981508994322898, -31.647598363242764]}}, {"type": "Feature", "properties": {"norad_id": 31252, "name": "FENGYUN 1C DEB", "group": "fengyun-1c-debris", "lat": 43.00648230904073, "lon": 1.353818829696998, "alt_km": 821.9025085073936, "timestamp": "2025-12-16T10:53:45.751184+00:00", "meta": {"OBJECT_NAME": "FENGYUN 1C DEB", "OBJECT_ID": "1999-025BMJ", "EPOCH": "2025-12-14T20:20:10.671072", "MEAN_MOTION": 14.40180409, "ECCENTRICITY": 0.02138392, "INCLINATION": 98.3176, "RA_OF_ASC_NODE": 7.6341, "ARG_OF_PERICENTER": 165.8775, "MEAN_ANOMALY": 194.8522, "EPHEMERIS_TYPE": 0, "CLASSIFICATION_TYPE": "U", "NORAD_CAT_ID": 31252, "ELEMENT_SET_NO": 999, "REV_AT_EPOCH": 97237, "BSTAR": 0.00032286894, "MEAN_MOTION_DOT": 1.287e-05, "MEAN_MOTION_DDOT": 0}, "tle": {"line1": "1 31252U 99025BMJ 25348.84734573  .00001287  00000+0  32287-3 0  9993", "line2": "2 31252  98.3176   7.6341 0213839 165.8775 194.8522 14.40180409972375"}}, "geometry": {"type": "Point", "coordinates": [1.353818829696998, 43.00648230904073]}}, {"type": "Feature", "properties": {"norad_id": 31253, "name": "FENGYUN 1C DEB", "group": "fengyun-1c-debris", "lat": 28.29163205399799, "lon": 50.537632210973676, "alt_km": 745.6638021876915, "timestamp": "2025-12-16T10:53:45.751194+00:00", "meta": {"OBJECT_NAME": "FENGYUN 1C DEB", "OBJECT_ID": "1999-025BMK", "EPOCH": "2025-12-10T11:03:14.516352", "MEAN_MOTION": 14.03597801, "ECCENTRICITY": 0.02905912, "INCLINATION": 99.0776, "RA_OF_ASC_NODE": 49.4834, "ARG_OF_PERICENTER": 97.1731, "MEAN_ANOMALY": 266.2566, "EPHEMERIS_TYPE": 0, "CLASSIFICATION_TYPE": "U", "NORAD_CAT_ID": 31253, "ELEMENT_SET_NO": 999, "REV_AT_EPOCH": 68966, "BSTAR": 0.00043343724, "MEAN_MOTION_DOT": 9.45e-06, "MEAN_MOTION_DDOT": 0}, "tle": {"line1": "1 31253U 99025BMK 25344.46058468  .00000945  00000+0  43344-3 0  9996", "line2": "2 31253  99.0776  49.4834 0290591  97.1731 266.2566 14.03597801689666"}}, "geometry": {"type": "Point", "coordinates": [50.537632210973676, 28.29163205399799]}}, {"type": "Feature", "properties": {"norad_id": 31254, "name": "FENGYUN 1C DEB", "group": "fengyun-1c-debris", "lat": 16.814168891999362, "lon": -137.33852186986908, "alt_km": 675.2547986099335, "timestamp": "2025-12-16T10:53:45.751204+00:00", "meta": {"OBJECT_NAME": "FENGYUN 1C DEB", "OBJECT_ID": "1999-025BML", "EPOCH": "2025-12-14T22:10:40.043712", "MEAN_MOTION": 14.36364402, "ECCENTRICITY": 0.01513959, "INCLINATION": 98.4632, "RA_OF_ASC_NODE": 38.5792, "ARG_OF_PERICENTER": 195.605, "MEAN_ANOMALY": 341.5186, "EPHEMERIS_TYPE": 0, "CLASSIFICATION_TYPE": "U", "NORAD_CAT_ID": 31254, "ELEMENT_SET_NO": 999, "REV_AT_EPOCH": 97547, "BSTAR": 0.00046816112, "MEAN_MOTION_DOT": 1.515e-05, "MEAN_MOTION_DDOT": 0}, "tle": {"line1": "1 31254U 99025BML 25348.92407458  .00001515  00000+0  46816-3 0  9990", "line2": "2 31254  98.4632  38.5792 0151395 195.6050 341.5186 14.36364402975476"}}, "geometry": {"type": "Point", "coordinates": [-137.33852186986908, 16.814168891999362]}}, {"type": "Feature", "properties": {"norad_id": 31255, "name": "FENGYUN 1C DEB", "group": "fengyun-1c-debris", "lat": 80.6724327924216, "lon": 74.56059659748355, "alt_km": 938.5660302392725, "timestamp": "2025-12-16T10:53:45.751214+00:00", "meta": {"OBJECT_NAME": "FENGYUN 1C DEB", "OBJECT_ID": "1999-025BMM", "EPOCH": "2025-12-15T10:37:41.691360", "MEAN_MOTION": 14.09732096, "ECCENTRICITY": 0.02705488, "INCLINATION": 99.3083, "RA_OF_ASC_NODE": 166.6232, "ARG_OF_PERICENTER": 335.9707, "MEAN_ANOMALY": 22.9028, "EPHEMERIS_TYPE": 0, "CLASSIFICATION_TYPE": "U", "NORAD_CAT_ID": 31255, "ELEMENT_SET_NO": 999, "REV_AT_EPOCH": 96839, "BSTAR": 0.00028608536, "MEAN_MOTION_DOT": 6.52e-06, "MEAN_MOTION_DDOT": 0}, "tle": {"line1": "1 31255U 99025BMM 25349.44284365  .00000652  00000+0  28609-3 0  9990", "line2": "2 31255  99.3083 166.6232 0270548 335.9707  22.9028 14.09732096968395"}}, "geometry": {"type": "Point", "coordinates": [74.56059659748355, 80.6724327924216]}}]}